CCSDS_OEM_VERS = 1.0
CREATION_DATE  = 2017-05-11T11:03:15
ORIGINATOR     = GMAT USER

META_START
OBJECT_NAME          = MOPSSat_alt_35785_km_RAAN_0_098
OBJECT_ID            = SatId
CENTER_NAME          = Earth
REF_FRAME            = EME2000
TIME_SYSTEM          = UTC
START_TIME           = 2017-01-01T00:00:00.000
USEABLE_START_TIME   = 2017-01-01T00:00:00.000
USEABLE_STOP_TIME    = 2017-01-02T00:00:00.000
STOP_TIME            = 2017-01-02T00:00:00.000
INTERPOLATION        = Lagrange
INTERPOLATION_DEGREE = 7 
META_STOP


                                                                                   

2017-01-01T01:50:00.000   3.211978019460396e+04   2.128099320267388e+04   3.686313269686470e+00  -1.706860973511949e+00   2.885013204724300e+00   4.979968132638897e-04
2017-01-01T01:50:10.000   3.210270039497171e+04   2.130983591698031e+04   3.691291967999796e+00  -1.709098638217589e+00   2.883529241969053e+00   4.977427837939689e-04
2017-01-01T01:50:20.000   3.208559822614989e+04   2.133866378257062e+04   3.696268124628316e+00  -1.711334814613968e+00   2.882043467508118e+00   4.974884773388665e-04
2017-01-01T01:50:30.000   3.206847370316454e+04   2.136747678110981e+04   3.701241736764509e+00  -1.713569501106299e+00   2.880555883146359e+00   4.972338941986516e-04
2017-01-01T01:50:40.000   3.205132684109936e+04   2.139627489421043e+04   3.706212801591673e+00  -1.715802696096993e+00   2.879066490693734e+00   4.969790346742187e-04
2017-01-01T01:50:50.000   3.203415765470168e+04   2.142505810409527e+04   3.711181316398331e+00  -1.718034398037044e+00   2.877575291931050e+00   4.967238990614327e-04
2017-01-01T01:51:00.000   3.201696615877517e+04   2.145382639293622e+04   3.716147278464105e+00  -1.720264605374762e+00   2.876082288644101e+00   4.964684876569639e-04
2017-01-01T01:51:10.000   3.199975236809140e+04   2.148257974300441e+04   3.721110685085631e+00  -1.722493316567415e+00   2.874587482615950e+00   4.962128007569718e-04
2017-01-01T01:51:20.000   3.198251629760953e+04   2.151131813629575e+04   3.726071533511921e+00  -1.724720530052166e+00   2.873090875646048e+00   4.959568386603641e-04
2017-01-01T01:51:30.000   3.196525796231404e+04   2.154004155480950e+04   3.731029820992454e+00  -1.726946244267708e+00   2.871592469536104e+00   4.957006016663928e-04
2017-01-01T01:51:40.000   3.194797737721333e+04   2.156874998054756e+04   3.735985544777035e+00  -1.729170457654190e+00   2.870092266089979e+00   4.954440900746299e-04
2017-01-01T01:51:50.000   3.193067455750897e+04   2.159744339524030e+04   3.740938702068489e+00  -1.731393168632023e+00   2.868590267128353e+00   4.951873041874935e-04
2017-01-01T01:52:00.000   3.191334951836888e+04   2.162612178071661e+04   3.745889290086516e+00  -1.733614375630507e+00   2.867086474469056e+00   4.949302443068677e-04
2017-01-01T01:52:10.000   3.189600227501642e+04   2.165478511875783e+04   3.750837306042501e+00  -1.735834077076525e+00   2.865580889934783e+00   4.946729107354258e-04
2017-01-01T01:52:20.000   3.187863284233882e+04   2.168343339174478e+04   3.755782747251193e+00  -1.738052271444651e+00   2.864073515319116e+00   4.944153037708013e-04
2017-01-01T01:52:30.000   3.186124123527838e+04   2.171206658201066e+04   3.760725611018991e+00  -1.740268957207030e+00   2.862564352420480e+00   4.941574237114138e-04
2017-01-01T01:52:40.000   3.184382746874444e+04   2.174068467198765e+04   3.765665894669262e+00  -1.742484132844746e+00   2.861053403034482e+00   4.938992708551524e-04
2017-01-01T01:52:50.000   3.182639155783573e+04   2.176928764383414e+04   3.770603595478005e+00  -1.744697796818917e+00   2.859540668973237e+00   4.936408455027070e-04
2017-01-01T01:53:00.000   3.180893351767616e+04   2.179787547971218e+04   3.775538710721707e+00  -1.746909947592211e+00   2.858026152051085e+00   4.933821479550970e-04
2017-01-01T01:53:10.000   3.179145336341348e+04   2.182644816178654e+04   3.780471237677216e+00  -1.749120583628770e+00   2.856509854084487e+00   4.931231785136665e-04
2017-01-01T01:53:20.000   3.177395111039027e+04   2.185500567195205e+04   3.785401173574656e+00  -1.751329703373147e+00   2.854991776906841e+00   4.928639374825821e-04
2017-01-01T01:53:30.000   3.175642677391481e+04   2.188354799220174e+04   3.790328515660974e+00  -1.753537305278756e+00   2.853471922348608e+00   4.926044251654717e-04
2017-01-01T01:53:40.000   3.173888036935260e+04   2.191207510447885e+04   3.795253261174401e+00  -1.755743387796422e+00   2.851950292245256e+00   4.923446418667682e-04
2017-01-01T01:53:50.000   3.172131191172384e+04   2.194058699133140e+04   3.800175407457447e+00  -1.757947949425010e+00   2.850426888402348e+00   4.920845878857753e-04
2017-01-01T01:54:00.000   3.170372141610676e+04   2.196908363525582e+04   3.805094951843593e+00  -1.760150988660663e+00   2.848901712630509e+00   4.918242635226135e-04
2017-01-01T01:54:10.000   3.168610889753368e+04   2.199756501886654e+04   3.810011891686569e+00  -1.762352504009914e+00   2.847374766736420e+00   4.915636690766900e-04
2017-01-01T01:54:20.000   3.166847437126969e+04   2.202603112443956e+04   3.814926224281549e+00  -1.764552493954375e+00   2.845846052546992e+00   4.913028048508028e-04
2017-01-01T01:54:30.000   3.165081785258307e+04   2.205448193428940e+04   3.819837946930238e+00  -1.766750956979907e+00   2.844315571889434e+00   4.910416711477612e-04
2017-01-01T01:54:40.000   3.163313935679635e+04   2.208291743068491e+04   3.824747056926325e+00  -1.768947891570101e+00   2.842783326595689e+00   4.907802682711346e-04
2017-01-01T01:54:50.000   3.161543889927385e+04   2.211133759587317e+04   3.829653551559617e+00  -1.771143296208156e+00   2.841249318501338e+00   4.905185965250887e-04
2017-01-01T01:55:00.000   3.159771649540271e+04   2.213974241210692e+04   3.834557428120762e+00  -1.773337169378972e+00   2.839713549443965e+00   4.902566562140810e-04
2017-01-01T01:55:10.000   3.157997216058659e+04   2.216813186165486e+04   3.839458683903046e+00  -1.775529509569952e+00   2.838176021262607e+00   4.899944476427793e-04
2017-01-01T01:55:20.000   3.156220591018299e+04   2.219650592690379e+04   3.844357316220008e+00  -1.777720315278900e+00   2.836636735792315e+00   4.897319711151086e-04
2017-01-01T01:55:30.000   3.154441775954460e+04   2.222486459029024e+04   3.849253322393644e+00  -1.779909585008725e+00   2.835095694867737e+00   4.894692269348860e-04
2017-01-01T01:55:40.000   3.152660772401939e+04   2.225320783430063e+04   3.854146699754440e+00  -1.782097317267461e+00   2.833552900323130e+00   4.892062154058154e-04
2017-01-01T01:55:50.000   3.150877581890742e+04   2.228153564153831e+04   3.859037445652927e+00  -1.784283510573418e+00   2.832008353988613e+00   4.889429368308648e-04
2017-01-01T01:56:00.000   3.149092205952498e+04   2.230984799462259e+04   3.863925557442278e+00  -1.786468163447415e+00   2.830462057695727e+00   4.886793915132006e-04
2017-01-01T01:56:10.000   3.147304646121129e+04   2.233814487617869e+04   3.868811032476545e+00  -1.788651274411990e+00   2.828914013277999e+00   4.884155797562863e-04
2017-01-01T01:56:20.000   3.145514903934489e+04   2.236642626880863e+04   3.873693868105647e+00  -1.790832841989143e+00   2.827364222572379e+00   4.881515018641200e-04
2017-01-01T01:56:30.000   3.143722980935947e+04   2.239469215506977e+04   3.878574061671658e+00  -1.793012864698701e+00   2.825812687420594e+00   4.878871581414726e-04
2017-01-01T01:56:40.000   3.141928878669060e+04   2.242294251755747e+04   3.883451610523086e+00  -1.795191341064690e+00   2.824259409664537e+00   4.876225488930996e-04
2017-01-01T01:56:50.000   3.140132598701419e+04   2.245117733853441e+04   3.888326511950862e+00  -1.797368269586775e+00   2.822704391166890e+00   4.873576744272572e-04
2017-01-01T01:57:00.000   3.138334142595783e+04   2.247939660038017e+04   3.893198763265968e+00  -1.799543648774905e+00   2.821147633786162e+00   4.870925350514467e-04
2017-01-01T01:57:10.000   3.136533511920792e+04   2.250760028542392e+04   3.898068361770546e+00  -1.801717477136405e+00   2.819589139385936e+00   4.868271310739923e-04
2017-01-01T01:57:20.000   3.134730708209568e+04   2.253578837659328e+04   3.902935304869939e+00  -1.803889753226016e+00   2.818028909799048e+00   4.865614627979413e-04
2017-01-01T01:57:30.000   3.132925733000975e+04   2.256396085676700e+04   3.907799589960904e+00  -1.806060475595962e+00   2.816466946863294e+00   4.862955305271430e-04
2017-01-01T01:57:40.000   3.131118587830319e+04   2.259211770892190e+04   3.912661214457007e+00  -1.808229642807315e+00   2.814903252413372e+00   4.860293345648765e-04
2017-01-01T01:57:50.000   3.129309274252433e+04   2.262025891576607e+04   3.917520175725274e+00  -1.810397253401669e+00   2.813337828300890e+00   4.857628752172485e-04
2017-01-01T01:58:00.000   3.127497793824622e+04   2.264838446001184e+04   3.922376471133334e+00  -1.812563305922224e+00   2.811770676379559e+00   4.854961527906837e-04
2017-01-01T01:58:10.000   3.125684148106530e+04   2.267649432437491e+04   3.927230098049258e+00  -1.814727798913705e+00   2.810201798505107e+00   4.852291675919063e-04
2017-01-01T01:58:20.000   3.123868338677866e+04   2.270458849130620e+04   3.932081053795259e+00  -1.816890730901749e+00   2.808631196550582e+00   4.849619199305611e-04
2017-01-01T01:58:30.000   3.122050367114640e+04   2.273266694335390e+04   3.936929335710204e+00  -1.819052100420752e+00   2.807058872385811e+00   4.846944101156995e-04
2017-01-01T01:58:40.000   3.120230234998489e+04   2.276072966302057e+04   3.941774941124950e+00  -1.821211906002868e+00   2.805484827885463e+00   4.844266384571582e-04
2017-01-01T01:58:50.000   3.118407943875601e+04   2.278877663339660e+04   3.946617867471709e+00  -1.823370146226767e+00   2.803909064893518e+00   4.841586052594927e-04
2017-01-01T01:59:00.000   3.116583495297767e+04   2.281680783752662e+04   3.951458112174656e+00  -1.825526819668865e+00   2.802331585258779e+00   4.838903108280386e-04
